satname,norad_id,inclination_deg,eccentricity,mean_motion_rev_per_day,perigee_km,apogee_km,l1,l2
STARLINK-1153,45080,53.0544,0.0001236,15.06440758,546.2306857126487,547.9426009972858,1 45080U 20006AN  25320.66087348  .00017386  00000+0  11819-2 0  9995,2 45080  53.0544  54.0236 0001236  90.9481 269.1649 15.06440758319700
STARLINK-1151,45081,53.0545,0.0001244,15.06453898,546.1848804445353,547.9078660678015,1 45081U 20006AP  25320.64613049  .00015932  00000+0  10845-2 0  9990,2 45081  53.0545  54.1661 0001244 104.4492 255.6635 15.06453898319701
STARLINK-1190,45083,53.0355,0.0005642,16.05016459,256.80426998212715,264.29536418652515,1 45083U 20006AR  25320.36526061  .00783375  31903-3  11139-2 0  9998,2 45083  53.0355 355.7540 0005642 349.6544  10.4371 16.05016459320495
STARLINK-1185,45087,53.0548,0.000143,15.06422676,546.1517452304179,548.1323750416177,1 45087U 20006AV  25320.82120358  .00004427  00000+0  31571-3 0  9999,2 45087  53.0548  33.2999 0001430 120.7117 239.4013 15.06422676320010
STARLINK-1183,45088,53.0558,0.0001605,15.06416248,546.0502501549354,548.2732710570899,1 45088U 20006AW  25320.57794067  .00009210  00000+0  63610-3 0  9990,2 45088  53.0558  34.3976 0001605  80.9571 279.1599 15.06416248319975
STARLINK-1142,45093,53.0317,0.0008171,15.68703836,357.0996831293087,368.11540786556,1 45093U 20006BB  25320.91668980  .00326229  00000+0  26994-2 0  9993,2 45093  53.0317 319.2882 0008171  60.3118 174.7008 15.68703836  5897
STARLINK-1152,45096,53.0447,0.000412,15.25488699,486.488964844415,492.1477480581316,1 45096U 20006BE  25320.45298651  .00016763  00000+0  66514-3 0  9991,2 45096  53.0447  15.0926 0004120 247.3754 112.6808 15.25488699320234
STARLINK-1184,45098,53.0557,0.0001311,15.06418784,546.2460826333236,548.0618939304513,1 45098U 20006BG  25320.59268251  .00009108  00000+0  62926-3 0  9999,2 45098  53.0557  34.3295 0001311  96.7710 263.3428 15.06418784319976
STARLINK-1193,45100,53.0563,0.0001549,15.0642143,546.0731525354522,548.2186051713215,1 45100U 20006BJ  25320.45629561  .00002546  00000+0  18964-3 0  9995,2 45100  53.0563  34.9416 0001549  90.2039 269.9128 15.06421430319953
STARLINK-1143,45179,53.0517,0.0009281,15.42557527,432.2376831706815,444.8908440562009,1 45179U 20012B   25320.52961028  .00054271  00000+0  12296-2 0  9996,2 45179  53.0517 154.3089 0009281 108.0158 252.1859 15.42557527318357
STARLINK-1202,45183,53.053,0.0001321,15.06404232,546.2837506670548,548.1134243292718,1 45183U 20012F   25320.65167710  .00003295  00000+0  23999-3 0  9994,2 45183  53.0530 194.0697 0001321  84.8019 275.3120 15.06404232317808
STARLINK-1216,45185,53.0522,0.0001266,15.0639412,546.3528279410757,548.1063307589675,1 45185U 20012H   25320.64431143  .00005353  00000+0  37807-3 0  9999,2 45185  53.0522 194.0989 0001266  86.5934 273.5200 15.06394120317744
STARLINK-1225,45187,53.0529,0.0001982,15.06417949,545.7839542035308,548.5291405657154,1 45187U 20012K   25320.66273265  .00006335  00000+0  44360-3 0  9995,2 45187  53.0529 194.0154 0001982  97.2446 262.8768 15.06417949317799
STARLINK-1230,45189,53.0529,0.0001426,15.06430911,546.1292806002584,548.1043629902342,1 45189U 20012M   25320.66641588  .00012230  00000+0  83781-3 0  9995,2 45189  53.0529 194.0038 0001426  90.2053 269.9099 15.06430911315025
STARLINK-1234,45190,53.0524,0.0003916,15.38072898,449.1337364639903,454.48294965667446,1 45190U 20012N   25320.47334177  .00027362  00000+0  72713-3 0  9994,2 45190  53.0524 148.4103 0003916 138.5988 221.5312 15.38072898318326
STARLINK-1269,45197,53.0525,7.51e-05,15.06413286,546.6507479424135,547.6909291797656,1 45197U 20012V   25320.67747146  .00004208  00000+0  30108-3 0  9993,2 45197  53.0525 193.9517 0000751  71.5648 288.5422 15.06413286317779
STARLINK-1154,45198,53.052,7.33e-05,15.06410907,546.6705041568575,547.6857553548798,1 45198U 20012W   25320.60191943  .00006948  00000+0  48470-3 0  9999,2 45198  53.0520 174.2899 0000733  39.4333 320.6710 15.06410907318017
STARLINK-1199,45201,53.0553,0.0001624,15.06410225,546.0555484466868,548.30489147973,1 45201U 20012Z   25320.61295044  .00004940  00000+0  35022-3 0  9991,2 45201  53.0553 174.2409 0001624  93.3870 266.7305 15.06410225318079
STARLINK-1209,45206,53.0536,0.0002645,15.32023224,467.9653775448378,471.58792386606,1 45206U 20012AE  25320.79101802  .00049673  00000+0  15856-2 0  9997,2 45206  53.0536 148.2183 0002645 140.1784 219.9410 15.32023224317506
STARLINK-1210,45207,53.0204,0.0009127,15.60697454,379.4679373136678,391.8145381087852,1 45207U 20012AF  25320.79119036  .00128167  00000+0  14955-2 0  9991,2 45207  53.0204 107.1814 0009127 113.3648 246.8326 15.60697454319035
STARLINK-1231,45212,53.0501,0.0007929,15.13269014,520.7642146269936,531.7131736027204,1 45212U 20012AL  25319.96539311  .00006807  00000+0  39454-3 0  9994,2 45212  53.0501 174.7876 0007929  95.3637 264.8260 15.13269014317966
STARLINK-1271,45217,53.0527,0.0001579,15.06430101,546.0258062743569,548.2128022152383,1 45217U 20012AR  25320.59820573  .00007075  00000+0  49301-3 0  9993,2 45217  53.0527 174.3079 0001579  83.6310 276.4859 15.06430101318078
STARLINK-1191,45222,53.055,0.0001531,15.06395028,546.1665232468558,548.2870696413265,1 45222U 20012AW  25319.94398000  .00001240  00000+0  10215-3 0  9991,2 45222  53.0550 157.2439 0001531  89.4109 270.7056 15.06395028318252
STARLINK-1212,45223,53.0527,0.000152,15.06406226,546.139826130322,548.24512629109,1 45223U 20012AX  25320.55961236  .00005775  00000+0  40619-3 0  9996,2 45223  53.0527 155.1357 0001520  81.6163 278.4998 15.06406226318348
STARLINK-1215,45225,53.0534,0.0001256,15.06384634,546.3888232214886,548.1284826095007,1 45225U 20012AZ  25320.51530192  .00004855  00000+0  34474-3 0  9997,2 45225  53.0534 154.6776 0001256 100.0017 260.1114 15.06384634318297
STARLINK-1221,45227,53.0667,0.0003735,15.37430891,451.1579013394139,456.26129074665823,1 45227U 20012BB  25320.38053010  .00024413  00000+0  66376-3 0  9991,2 45227  53.0667  84.7071 0003735  30.2558 329.8660 15.37430891319252
STARLINK-1222,45228,53.0535,0.0001371,15.06403704,546.2507420041056,548.1496694659172,1 45228U 20012BC  25320.54847296  .00005368  00000+0  37892-3 0  9996,2 45228  53.0535 154.5296 0001371  83.5456 276.5689 15.06403704318239
STARLINK-1226,45229,53.0539,0.0001466,15.06382839,546.2488906217204,548.2794182402004,1 45229U 20012BD  25320.24621647  .00001832  00000+0  14193-3 0  9995,2 45229  53.0539 155.8848 0001466  96.5610 263.5546 15.06382839318190
STARLINK-1227,45230,53.0541,0.0001516,15.06385296,546.2067342736982,548.3065136204787,1 45230U 20012BE  25320.24253723 -.00000196  00000+0  57677-5 0  9992,2 45230  53.0541 155.9022 0001516  92.3177 267.7986 15.06385296318316
STARLINK-1246,45235,53.0539,0.000126,15.06414456,546.294664398788,548.0398410704765,1 45235U 20012BK  25320.65535939  .00005480  00000+0  38635-3 0  9995,2 45235  53.0539 194.0487 0001260  78.2945 281.8186 15.06414456317824
STARLINK-1270,45237,53.0528,0.0001409,15.06391772,546.2609905230174,548.2125608530077,1 45237U 20012BM  25320.26097227  .00002479  00000+0  18530-3 0  9994,2 45237  53.0528 155.8198 0001409  93.6201 266.4949 15.06391772318304
STARLINK-1279,45360,53.0515,0.00071,15.36800596,450.7255152752123,460.4293897978141,1 45360U 20019A   25320.78973361  .00062101  00000+0  16973-2 0  9993,2 45360  53.0515 277.5393 0007100  61.6901 298.4817 15.36800596313207
STARLINK-1301,45361,53.0512,0.0005984,15.39230538,444.29843446912764,452.4684141129201,1 45361U 20019B   25320.79138983  .00054451  00000+0  13783-2 0  9993,2 45361  53.0512 286.9679 0005984  50.7823 309.3711 15.39230538313083
STARLINK-1306,45362,53.0437,0.0006185,15.75588333,338.8005355227988,347.11452945949077,1 45362U 20019C   25320.91668980  .00245481  00000+0  15346-2 0  9995,2 45362  53.0437 272.4496 0006185  26.3042 290.5677 15.75588333  5969
STARLINK-1262,45366,53.0537,0.0001278,15.06401987,546.3204093087315,548.0905268435727,1 45366U 20019G   25320.70327088  .00005914  00000+0  41556-3 0  9995,2 45366  53.0537 313.8300 0001278  84.6068 275.5067 15.06401987312703
STARLINK-1273,45367,53.0542,0.0001558,15.06403243,546.1226508714035,548.280586384968,1 45367U 20019H   25320.26095706  .00004688  00000+0  33335-3 0  9999,2 45367  53.0542 315.8176 0001558  88.5686 271.5481 15.06403243312638
STARLINK-1276,45368,53.0546,0.000132,15.06438922,546.1781399188449,548.0064004461738,1 45368U 20019J   25320.29781728  .00016559  00000+0  11268-2 0  9999,2 45368  53.0546 315.6550 0001320  97.7632 262.3507 15.06438922312647
STARLINK-1277,45369,53.0536,0.0001162,15.06421182,546.3419209609074,547.9513568785924,1 45369U 20019K   25320.68859677  .00002631  00000+0  19532-3 0  9991,2 45369  53.0536 314.5289 0001162  81.3462 278.7659 15.06421182312692
STARLINK-1281,45370,53.0548,0.0001418,15.06392442,546.2527045063662,548.2167399267864,1 45370U 20019L   25320.68483093  .00004747  00000+0  33744-3 0  9999,2 45370  53.0548 313.9201 0001418  91.2262 268.8890 15.06392442312701
STARLINK-1300,45374,53.0554,0.0001656,15.06409722,546.0349287818362,548.3285943556684,1 45374U 20019Q   25320.57424226 -.00011454  00000+0 -75104-3 0  9995,2 45374  53.0554 314.4117 0001656 164.4043 195.6998 15.06409722312681
STARLINK-1302,45375,53.0541,0.0001472,15.06426252,546.1117010433036,548.1504999720937,1 45375U 20019R   25320.25728210  .00018098  00000+0  12299-2 0  9995,2 45375  53.0541 315.8360 0001472  91.3166 268.7992 15.06426252312631
STARLINK-1304,45376,53.0542,0.0001181,15.06428909,546.3050842328903,547.940830634835,1 45376U 20019S   25320.27569958  .00011911  00000+0  81655-3 0  9990,2 45376  53.0542 315.7515 0001181  72.4365 287.6753 15.06428909312638
STARLINK-1305,45377,53.054,0.0004445,15.33277449,462.9994963207546,469.0839712150746,1 45377U 20019T   25320.66800194  .00040426  00000+0  12441-2 0  9993,2 45377  53.0540 308.7445 0004445  53.7691 306.3720 15.33277449312770
